{"type": "FeatureCollection", "features": [ {"type": "Feature", "properties": {"norad_id": 33618, "name": "FENGYUN 1C DEB", "group": "fengyun-1c-debris", "lat": -68.17350056864, "lon": 98.01670084641675, "alt_km": 799.2891583668434, "timestamp": "2025-12-14T14:39:29.657121+00:00", "meta": {"OBJECT_NAME": "FENGYUN 1C DEB", "OBJECT_ID": "1999-025DDB", "EPOCH": "2025-12-13T11:03:58.007520", "MEAN_MOTION": 14.62143071, "ECCENTRICITY": 0.01650787, "INCLINATION": 98.5304, "RA_OF_ASC_NODE": 74.8204, "ARG_OF_PERICENTER": 138.1929, "MEAN_ANOMALY": 223.202, "EPHEMERIS_TYPE": 0, "CLASSIFICATION_TYPE": "U", "NORAD_CAT_ID": 33618, "ELEMENT_SET_NO": 999, "REV_AT_EPOCH": 96794, "BSTAR": 0.0014985707, "MEAN_MOTION_DOT": 9.117e-05, "MEAN_MOTION_DDOT": 0}, "tle": {"line1": "1 33618U 99025DDB 25347.46108805  .00009117  00000+0  14986-2 0  9996", "line2": "2 33618  98.5304  74.8204 0165078 138.1929 223.2020 14.62143071967942"}}, "geometry": {"type": "Point", "coordinates": [98.01670084641675, -68.17350056864]}}, {"type": "Feature", "properties": {"norad_id": 33619, "name": "FENGYUN 1C DEB", "group": "fengyun-1c-debris", "lat": -46.726828833732014, "lon": -131.53428342708884, "alt_km": 876.8525285185315, "timestamp": "2025-12-14T14:39:29.657131+00:00", "meta": {"OBJECT_NAME": "FENGYUN 1C DEB", "OBJECT_ID": "1999-025DDC", "EPOCH": "2025-12-13T22:20:38.013792", "MEAN_MOTION": 14.17515284, "ECCENTRICITY": 0.00507436, "INCLINATION": 98.8617, "RA_OF_ASC_NODE": 57.3264, "ARG_OF_PERICENTER": 42.7698, "MEAN_ANOMALY": 317.7408, "EPHEMERIS_TYPE": 0, "CLASSIFICATION_TYPE": "U", "NORAD_CAT_ID": 33619, "ELEMENT_SET_NO": 999, "REV_AT_EPOCH": 63641, "BSTAR": 0.0015412823, "MEAN_MOTION_DOT": 3.124e-05, "MEAN_MOTION_DDOT": 0}, "tle": {"line1": "1 33619U 99025DDC 25347.93099553  .00003124  00000+0  15413-2 0  9996", "line2": "2 33619  98.8617  57.3264 0050743  42.7698 317.7408 14.17515284636413"}}, "geometry": {"type": "Point", "coordinates": [-131.53428342708884, -46.726828833732014]}}, {"type": "Feature", "properties": {"norad_id": 33621, "name": "FENGYUN 1C DEB", "group": "fengyun-1c-debris", "lat": 33.11816914204432, "lon": 24.573262294622822, "alt_km": 985.6618316423028, "timestamp": "2025-12-14T14:39:29.657142+00:00", "meta": {"OBJECT_NAME": "FENGYUN 1C DEB", "OBJECT_ID": "1999-025DDE", "EPOCH": "2025-12-10T20:17:14.702784", "MEAN_MOTION": 14.19482835, "ECCENTRICITY": 0.02846988, "INCLINATION": 98.1391, "RA_OF_ASC_NODE": 195.7496, "ARG_OF_PERICENTER": 300.0128, "MEAN_ANOMALY": 57.3079, "EPHEMERIS_TYPE": 0, "CLASSIFICATION_TYPE": "U", "NORAD_CAT_ID": 33621, "ELEMENT_SET_NO": 999, "REV_AT_EPOCH": 64217, "BSTAR": 0.00099524636, "MEAN_MOTION_DOT": 3.099e-05, "MEAN_MOTION_DDOT": 0}, "tle": {"line1": "1 33621U 99025DDE 25344.84530906  .00003099  00000+0  99525-3 0  9996", "line2": "2 33621  98.1391 195.7496 0284698 300.0128  57.3079 14.19482835642176"}}, "geometry": {"type": "Point", "coordinates": [24.573262294622822, 33.11816914204432]}}, {"type": "Feature", "properties": {"norad_id": 33625, "name": "FENGYUN 1C DEB", "group": "fengyun-1c-debris", "lat": -50.24258826347631, "lon": 109.85472114448308, "alt_km": 856.2634340292434, "timestamp": "2025-12-14T14:39:29.657154+00:00", "meta": {"OBJECT_NAME": "FENGYUN 1C DEB", "OBJECT_ID": "1999-025DDJ", "EPOCH": "2025-12-13T12:36:07.794144", "MEAN_MOTION": 14.61020731, "ECCENTRICITY": 0.02258414, "INCLINATION": 98.6212, "RA_OF_ASC_NODE": 98.2156, "ARG_OF_PERICENTER": 132.8107, "MEAN_ANOMALY": 229.2324, "EPHEMERIS_TYPE": 0, "CLASSIFICATION_TYPE": "U", "NORAD_CAT_ID": 33625, "ELEMENT_SET_NO": 999, "REV_AT_EPOCH": 61402, "BSTAR": 0.0021929807, "MEAN_MOTION_DOT": 0.00015444, "MEAN_MOTION_DDOT": 0}, "tle": {"line1": "1 33625U 99025DDJ 25347.52509021  .00015444  00000+0  21930-2 0  9993", "line2": "2 33625  98.6212  98.2156 0225841 132.8107 229.2324 14.61020731614026"}}, "geometry": {"type": "Point", "coordinates": [109.85472114448308, -50.24258826347631]}}, {"type": "Feature", "properties": {"norad_id": 33630, "name": "FENGYUN 1C DEB", "group": "fengyun-1c-debris", "lat": 7.00639155855335, "lon": -84.1832794780176, "alt_km": 867.3607353853085, "timestamp": "2025-12-14T14:39:29.657164+00:00", "meta": {"OBJECT_NAME": "FENGYUN 1C DEB", "OBJECT_ID": "1999-025DDP", "EPOCH": "2025-12-09T13:35:56.277312", "MEAN_MOTION": 14.17713216, "ECCENTRICITY": 0.0135528, "INCLINATION": 98.6166, "RA_OF_ASC_NODE": 89.8546, "ARG_OF_PERICENTER": 77.2482, "MEAN_ANOMALY": 284.3802, "EPHEMERIS_TYPE": 0, "CLASSIFICATION_TYPE": "U", "NORAD_CAT_ID": 33630, "ELEMENT_SET_NO": 999, "REV_AT_EPOCH": 64366, "BSTAR": 0.00061826, "MEAN_MOTION_DOT": 1.337e-05, "MEAN_MOTION_DDOT": 0}, "tle": {"line1": "1 33630U 99025DDP 25343.56662358  .00001337  00000+0  61826-3 0  9997", "line2": "2 33630  98.6166  89.8546 0135528  77.2482 284.3802 14.17713216643662"}}, "geometry": {"type": "Point", "coordinates": [-84.1832794780176, 7.00639155855335]}}, {"type": "Feature", "properties": {"norad_id": 33633, "name": "FENGYUN 1C DEB", "group": "fengyun-1c-debris", "lat": -43.961753973999635, "lon": -105.92393438224069, "alt_km": 821.7546150415856, "timestamp": "2025-12-14T14:39:29.657174+00:00", "meta": {"OBJECT_NAME": "FENGYUN 1C DEB", "OBJECT_ID": "1999-025DDS", "EPOCH": "2025-12-12T05:54:30.955104", "MEAN_MOTION": 14.19329776, "ECCENTRICITY": 0.00830759, "INCLINATION": 99.0576, "RA_OF_ASC_NODE": 80.5087, "ARG_OF_PERICENTER": 152.7608, "MEAN_ANOMALY": 235.4895, "EPHEMERIS_TYPE": 0, "CLASSIFICATION_TYPE": "U", "NORAD_CAT_ID": 33633, "ELEMENT_SET_NO": 999, "REV_AT_EPOCH": 90704, "BSTAR": 0.0036236562, "MEAN_MOTION_DOT": 7.838e-05, "MEAN_MOTION_DDOT": 0}, "tle": {"line1": "1 33633U 99025DDS 25346.24619161  .00007838  00000+0  36237-2 0  9991", "line2": "2 33633  99.0576  80.5087 0083075 152.7608 235.4895 14.19329776907041"}}, "geometry": {"type": "Point", "coordinates": [-105.92393438224069, -43.961753973999635]}}, {"type": "Feature", "properties": {"norad_id": 33637, "name": "FENGYUN 1C DEB", "group": "fengyun-1c-debris", "lat": -42.093598636815905, "lon": -154.19200371999088, "alt_km": 761.5604537733388, "timestamp": "2025-12-14T14:39:29.657184+00:00", "meta": {"OBJECT_NAME": "FENGYUN 1C DEB", "OBJECT_ID": "1999-025DDW", "EPOCH": "2025-12-13T20:55:05.593728", "MEAN_MOTION": 14.36759768, "ECCENTRICITY": 0.00830796, "INCLINATION": 98.4929, "RA_OF_ASC_NODE": 32.8364, "ARG_OF_PERICENTER": 148.1698, "MEAN_ANOMALY": 212.4548, "EPHEMERIS_TYPE": 0, "CLASSIFICATION_TYPE": "U", "NORAD_CAT_ID": 33637, "ELEMENT_SET_NO": 999, "REV_AT_EPOCH": 64854, "BSTAR": 0.0014619922, "MEAN_MOTION_DOT": 4.446e-05, "MEAN_MOTION_DDOT": 0}, "tle": {"line1": "1 33637U 99025DDW 25347.87159252  .00004446  00000+0  14620-2 0  9999", "line2": "2 33637  98.4929  32.8364 0083079 148.1698 212.4548 14.36759768648544"}}, "geometry": {"type": "Point", "coordinates": [-154.19200371999088, -42.093598636815905]}}, {"type": "Feature", "properties": {"norad_id": 33638, "name": "FENGYUN 1C DEB", "group": "fengyun-1c-debris", "lat": -76.37931330358853, "lon": 21.159965079767414, "alt_km": 816.0698012358862, "timestamp": "2025-12-14T14:39:29.657194+00:00", "meta": {"OBJECT_NAME": "FENGYUN 1C DEB", "OBJECT_ID": "1999-025DDX", "EPOCH": "2025-12-11T22:14:50.921664", "MEAN_MOTION": 13.69308763, "ECCENTRICITY": 0.0264805, "INCLINATION": 98.4644, "RA_OF_ASC_NODE": 236.7162, "ARG_OF_PERICENTER": 275.2453, "MEAN_ANOMALY": 81.8534, "EPHEMERIS_TYPE": 0, "CLASSIFICATION_TYPE": "U", "NORAD_CAT_ID": 33638, "ELEMENT_SET_NO": 999, "REV_AT_EPOCH": 60904, "BSTAR": 0.0019789, "MEAN_MOTION_DOT": 2.159e-05, "MEAN_MOTION_DDOT": 0}, "tle": {"line1": "1 33638U 99025DDX 25345.92697826  .00002159  00000+0  19789-2 0  9998", "line2": "2 33638  98.4644 236.7162 0264805 275.2453  81.8534 13.69308763609044"}}, "geometry": {"type": "Point", "coordinates": [21.159965079767414, -76.37931330358853]}}, {"type": "Feature", "properties": {"norad_id": 33639, "name": "FENGYUN 1C DEB", "group": "fengyun-1c-debris", "lat": -38.59812735001555, "lon": 86.65453930077518, "alt_km": 735.1486724803417, "timestamp": "2025-12-14T14:39:29.657204+00:00", "meta": {"OBJECT_NAME": "FENGYUN 1C DEB", "OBJECT_ID": "1999-025DDY", "EPOCH": "2025-12-03T23:45:48.189312", "MEAN_MOTION": 14.40248408, "ECCENTRICITY": 0.00493059, "INCLINATION": 98.7136, "RA_OF_ASC_NODE": 68.813, "ARG_OF_PERICENTER": 315.1865, "MEAN_ANOMALY": 44.5345, "EPHEMERIS_TYPE": 0, "CLASSIFICATION_TYPE": "U", "NORAD_CAT_ID": 33639, "ELEMENT_SET_NO": 999, "REV_AT_EPOCH": 60456, "BSTAR": 0.0043899516, "MEAN_MOTION_DOT": 0.00014079, "MEAN_MOTION_DDOT": 0}, "tle": {"line1": "1 33639U 99025DDY 25337.99014108  .00014079  00000+0  43900-2 0  9999", "line2": "2 33639  98.7136  68.8130 0049305 315.1865  44.5345 14.40248408604567"}}, "geometry": {"type": "Point", "coordinates": [86.65453930077518, -38.59812735001555]}}, {"type": "Feature", "properties": {"norad_id": 33640, "name": "FENGYUN 1C DEB", "group": "fengyun-1c-debris", "lat": -4.426514732717869, "lon": 110.75202425230567, "alt_km": 686.6734228406049, "timestamp": "2025-12-14T14:39:29.657214+00:00", "meta": {"OBJECT_NAME": "FENGYUN 1C DEB", "OBJECT_ID": "1999-025DDZ", "EPOCH": "2025-12-11T19:22:45.041664", "MEAN_MOTION": 14.45889666, "ECCENTRICITY": 0.00906976, "INCLINATION": 98.8406, "RA_OF_ASC_NODE": 288.5217, "ARG_OF_PERICENTER": 162.4466, "MEAN_ANOMALY": 197.9894, "EPHEMERIS_TYPE": 0, "CLASSIFICATION_TYPE": "U", "NORAD_CAT_ID": 33640, "ELEMENT_SET_NO": 999, "REV_AT_EPOCH": 92329, "BSTAR": 0.00074722735, "MEAN_MOTION_DOT": 2.744e-05, "MEAN_MOTION_DDOT": 0}, "tle": {"line1": "1 33640U 99025DDZ 25345.80746576  .00002744  00000+0  74723-3 0  9995", "line2": "2 33640  98.8406 288.5217 0090697 162.4466 197.9894 14.45889666923295"}}, "geometry": {"type": "Point", "coordinates": [110.75202425230567, -4.426514732717869]}}]}